NORAD_CAT_ID,OBJECT_NAME,OBJECT_TYPE,EPOCH,MEAN_MOTION,ECCENTRICITY,INCLINATION,RA_OF_ASC_NODE,ARG_OF_PERICENTER,MEAN_ANOMALY,BSTAR,MEAN_MOTION_DOT,MEAN_MOTION_DDOT,TLE_LINE0,TLE_LINE1,TLE_LINE2,SEMIMAJOR_AXIS,PERIOD,APOGEE,PERIGEE,DECAYED
51861.0,STARLINK-3562,PAYLOAD,2023-02-03 09:26:11,15.08841946,0.0001226,53.2168,43.2118,93.5589,266.5543,0.00012127,1.643e-05,0.0,0 STARLINK-3562,1 51861U 22022K   23034.39318323  .00001643  00000-0  12127-3 0  9993,2 51861  53.2168  43.2118 0001226  93.5589 266.5543 15.08841946 52393,6917.874,95.437,540.588,538.891,0.0
51861.0,STARLINK-3562,PAYLOAD,2023-02-04 06:06:11,15.08842825,0.0001346,53.2177,39.3465,97.8902,262.2243,0.00016533,2.344e-05,0.0,0 STARLINK-3562,1 51861U 22022K   23035.25430365  .00002344  00000-0  16533-3 0  9994,2 51861  53.2177  39.3465 0001346  97.8902 262.2243 15.08842825 52592,6917.872,95.437,540.668,538.806,0.0
51861.0,STARLINK-3562,PAYLOAD,2023-02-04 09:16:57,15.0884733,0.0001245,53.2174,38.7515,91.9291,268.1844,0.00020152,2.921e-05,0.0,0 STARLINK-3562,1 51861U 22022K   23035.38678137  .00002921  00000-0  20152-3 0  9992,2 51861  53.2174  38.7515 0001245  91.9291 268.1844 15.08847330 52545,6917.858,95.437,540.584,538.862,0.0
51861.0,STARLINK-3562,PAYLOAD,2023-02-05 05:56:59,15.08838755,0.0001341,53.2179,34.8861,92.4329,267.6816,4.4886e-05,4.27e-06,0.0,0 STARLINK-3562,1 51861U 22022K   23036.24790783  .00000427  00000-0  44886-4 0  9990,2 51861  53.2179  34.8861 0001341  92.4329 267.6816 15.08838755 52742,6917.884,95.438,540.677,538.822,0.0
51861.0,STARLINK-3562,PAYLOAD,2023-02-05 09:07:45,15.08842444,0.0001378,53.2177,34.2911,89.9329,270.1821,0.00010267,1.347e-05,0.0,0 STARLINK-3562,1 51861U 22022K   23036.38038619  .00001347  00000-0  10267-3 0  9995,2 51861  53.2177  34.2911 0001378  89.9329 270.1821 15.08842444 52690,6917.873,95.437,540.691,538.785,0.0
51861.0,STARLINK-3562,PAYLOAD,2023-02-06 08:58:32,15.08845984,0.0001372,53.2165,29.8296,90.789,269.3259,0.000138,1.909e-05,0.0,0 STARLINK-3562,1 51861U 22022K   23037.37398621  .00001909  00000-0  13800-3 0  9997,2 51861  53.2165  29.8296 0001372  90.7890 269.3259 15.08845984 52912,6917.862,95.437,540.676,538.778,0.0
51861.0,STARLINK-3562,PAYLOAD,2023-02-07 10:24:41,15.08872835,0.000149,53.2178,25.0724,90.8076,269.3087,0.00066457,0.00010314,0.0,0 STARLINK-3562,1 51861U 22022K   23038.43381432  .00010314  00000-0  66457-3 0  9993,2 51861  53.2178  25.0724 0001490  90.8076 269.3087 15.08872835 53070,6917.78,95.435,540.676,538.614,0.0
51861.0,STARLINK-3562,PAYLOAD,2023-02-08 05:29:19,15.08843082,0.0001286,53.2172,21.5043,98.519,261.5948,-2.4105e-06,-3.26e-06,0.0,0 STARLINK-3562,1 51861U 22022K   23039.22870203 -.00000326  00000-0 -24105-5 0  9990,2 51861  53.2172  21.5043 0001286  98.5190 261.5948 15.08843082 53199,6917.871,95.437,540.626,538.846,0.0
51861.0,STARLINK-3562,PAYLOAD,2023-02-08 10:15:28,15.08864723,0.000109,53.2173,20.613,91.5638,268.5479,0.00064871,0.00010058,0.0,0 STARLINK-3562,1 51861U 22022K   23039.42741600  .00010058  00000-0  64871-3 0  9993,2 51861  53.2173  20.6130 0001090  91.5638 268.5479 15.08864723 53157,6917.805,95.436,540.424,538.916,0.0
51861.0,STARLINK-3562,PAYLOAD,2023-02-09 05:20:07,15.08842006,0.0001045,53.2184,17.0462,80.6958,279.4152,0.0015549,0.00024546,0.0,0 STARLINK-3562,1 51861U 22022K   23040.22230963  .00024546  00000-0  15549-2 0  9992,2 51861  53.2184  17.0462 0001045  80.6958 279.4152 15.08842006 53341,6917.874,95.437,540.462,539.016,0.0
51861.0,STARLINK-3562,PAYLOAD,2023-02-09 10:06:16,15.08861901,9.83e-05,53.2179,16.1528,77.2929,282.8173,0.0025037,0.00039808,0.0,0 STARLINK-3562,1 51861U 22022K   23040.42102754  .00039808  00000-0  25037-2 0  9990,2 51861  53.2179  16.1528 0000983  77.2929 282.8173 15.08861901 53300,6917.813,95.436,540.358,538.998,0.0
51861.0,STARLINK-3562,PAYLOAD,2023-02-10 08:21:40,15.08889354,9.31e-05,53.2177,11.9901,100.3265,259.7832,0.0035626,0.00056946,0.0,0 STARLINK-3562,1 51861U 22022K   23041.34838666  .00056946  00000-0  35626-2 0  9997,2 51861  53.2177  11.9901 0000931 100.3265 259.7832 15.08889354 53510,6917.73,95.434,540.239,538.95,0.0
51861.0,STARLINK-3562,PAYLOAD,2023-02-11 00:15:31,15.08849117,0.0001957,53.2176,9.0167,122.2842,237.834,0.0016607,0.00026248,0.0,0 STARLINK-3562,1 51861U 22022K   23042.01078691  .00026248  00000-0  16607-2 0  9996,2 51861  53.2176   9.0167 0001957 122.2842 237.8340 15.08849117 53619,6917.853,95.437,541.071,538.364,0.0
51861.0,STARLINK-3562,PAYLOAD,2023-02-11 05:01:41,15.08835343,0.0001271,53.2177,8.1246,127.9663,232.1444,0.00071425,0.00011096,0.0,0 STARLINK-3562,1 51861U 22022K   23042.20950954  .00011096  00000-0  71425-3 0  9993,2 51861  53.2177   8.1246 0001271 127.9663 232.1444 15.08835343 53642,6917.895,95.438,540.639,538.88,0.0
51861.0,STARLINK-3562,PAYLOAD,2023-02-12 14:24:48,15.08828684,0.0002547,53.2178,1.8816,87.9339,272.1945,-4.5767e-05,-1.017e-05,0.0,0 STARLINK-3562,1 51861U 22022K   23043.60056196 -.00001017  00000-0 -45767-4 0  9998,2 51861  53.2178   1.8816 0002547  87.9339 272.1945 15.08828684 53851,6917.915,95.438,541.542,538.018,0.0
51861.0,STARLINK-3562,PAYLOAD,2023-02-13 14:15:35,15.08849703,0.0001004,53.2175,357.4189,82.6401,277.4705,0.0014584,0.00023005,0.0,0 STARLINK-3562,1 51861U 22022K   23044.59416347  .00023005  00000-0  14584-2 0  9995,2 51861  53.2175 357.4189 0001004  82.6401 277.4705 15.08849703 53936,6917.851,95.437,540.41,539.021,0.0
51861.0,STARLINK-3562,PAYLOAD,2023-02-14 02:58:40,15.08854824,0.0001656,53.2184,355.0413,76.2537,283.8639,0.0010996,0.00017263,0.0,0 STARLINK-3562,1 51861U 22022K   23045.12408421  .00017263  00000-0  10996-2 0  9991,2 51861  53.2184 355.0413 0001656  76.2537 283.8639 15.08854824 54086,6917.835,95.437,540.846,538.554,0.0
51861.0,STARLINK-3562,PAYLOAD,2023-02-14 14:06:22,15.08854881,0.0001155,53.2189,352.9589,82.2656,277.8468,0.00071488,0.00011112,0.0,0 STARLINK-3562,1 51861U 22022K   23045.58776136  .00011112  00000-0  71488-3 0  9993,2 51861  53.2189 352.9589 0001155  82.2656 277.8468 15.08854881 54080,6917.835,95.437,540.499,538.901,0.0
51861.0,STARLINK-3562,PAYLOAD,2023-02-15 02:49:27,15.088494,0.0001193,53.218,350.58,108.0908,252.0214,0.0003639,5.51e-05,0.0,0 STARLINK-3562,1 51861U 22022K   23046.11768172  .00005510  00000-0  36390-3 0  9992,2 51861  53.2180 350.5800 0001193 108.0908 252.0214 15.08849400 54232,6917.852,95.437,540.542,538.891,0.0
51861.0,STARLINK-3562,PAYLOAD,2023-02-15 20:18:41,15.08848624,0.0001067,53.218,347.3104,96.7414,263.37,0.00022973,3.371e-05,0.0,0 STARLINK-3562,1 51861U 22022K   23046.84631933  .00003371  00000-0  22973-3 0  9991,2 51861  53.2180 347.3104 0001067  96.7414 263.3700 15.08848624 54274,6917.854,95.437,540.457,538.981,0.0
51861.0,STARLINK-3562,PAYLOAD,2023-02-16 12:12:32,15.08862941,0.000156,53.2182,344.3358,70.051,290.065,0.00049667,7.63e-05,0.0,0 STARLINK-3562,1 51861U 22022K   23047.50871087  .00007630  00000-0  49667-3 0  9992,2 51861  53.2182 344.3358 0001560  70.0510 290.0650 15.08862941 54442,6917.81,95.436,540.754,538.596,0.0
51861.0,STARLINK-3562,PAYLOAD,2023-02-16 23:20:15,15.0881466,0.0001552,53.2183,342.2552,80.6397,279.4771,-0.0006747,-0.00011002,0.0,0 STARLINK-3562,1 51861U 22022K   23047.97240486 -.00011002  00000-0 -67470-3 0  9998,2 51861  53.2183 342.2552 0001552  80.6397 279.4771 15.08814660 54515,6917.958,95.439,540.897,538.749,0.0
51861.0,STARLINK-3562,PAYLOAD,2023-02-17 05:41:48,15.08828509,0.0001785,53.2194,341.0677,96.77,263.3495,-0.00017996,-3.15e-05,0.0,0 STARLINK-3562,1 51861U 22022K   23048.23736630 -.00003150  00000-0 -17996-3 0  9992,2 51861  53.2194 341.0677 0001785  96.7700 263.3495 15.08828509 54552,6917.916,95.438,541.015,538.546,0.0
51861.0,STARLINK-3562,PAYLOAD,2023-02-17 12:03:21,15.08808043,5.73e-05,53.2196,339.8775,140.2853,219.8182,-0.00060833,-9.947e-05,0.0,0 STARLINK-3562,1 51861U 22022K   23048.50232931 -.00009947  00000-0 -60833-3 0  9995,2 51861  53.2196 339.8775 0000573 140.2853 219.8182 15.08808043 54590,6917.978,95.44,540.239,539.447,0.0
51861.0,STARLINK-3562,PAYLOAD,2023-02-17 21:35:41,15.08797896,9.29e-05,53.2197,338.0913,94.2478,265.862,0.00012626,1.72e-05,0.0,0 STARLINK-3562,1 51861U 22022K   23048.89978450  .00001720  00000-0  12626-3 0  9996,2 51861  53.2197 338.0913 0000929  94.2478 265.8620 15.08797896 54582,6918.009,95.44,540.517,539.231,0.0
51861.0,STARLINK-3562,PAYLOAD,2023-02-18 00:46:27,15.08817426,0.0001876,53.2189,337.501,102.1104,258.0099,0.00052776,8.116e-05,0.0,0 STARLINK-3562,1 51861U 22022K   23049.03226501  .00008116  00000-0  52776-3 0  9992,2 51861  53.2189 337.5010 0001876 102.1104 258.0099 15.08817426 54678,6917.949,95.439,541.112,538.517,0.0
51861.0,STARLINK-3562,PAYLOAD,2023-02-18 11:54:09,15.08851985,0.0002057,53.2195,335.4196,105.7745,254.3474,0.0014483,0.00022845,0.0,0 STARLINK-3562,1 51861U 22022K   23049.49594387  .00022845  00000-0  14483-2 0  9999,2 51861  53.2195 335.4196 0002057 105.7745 254.3474 15.08851985 54741,6917.844,95.437,541.132,538.286,0.0
51861.0,STARLINK-3562,PAYLOAD,2023-02-18 23:01:50,15.08893012,0.0001783,53.2167,333.3349,102.9785,257.1406,0.002167,0.00034419,0.0,0 STARLINK-3562,1 51861U 22022K   23049.95961054  .00034419  00000-0  21670-2 0  9995,2 51861  53.2167 333.3349 0001783 102.9785 257.1406 15.08893012 54816,6917.718,95.434,540.817,538.35,0.0
51861.0,STARLINK-3562,PAYLOAD,2023-02-19 11:44:54,15.08881892,0.000235,53.2175,330.9554,76.1459,283.9795,0.0012966,0.00020432,0.0,0 STARLINK-3562,1 51861U 22022K   23050.48952168  .00020432  00000-0  12966-2 0  9999,2 51861  53.2175 330.9554 0002350  76.1459 283.9795 15.08881892 54896,6917.752,95.435,541.243,537.992,0.0
51861.0,STARLINK-3562,PAYLOAD,2023-02-19 22:52:36,15.08850271,0.0001026,53.2166,328.8761,91.0832,269.0278,-0.00027874,-4.722e-05,0.0,0 STARLINK-3562,1 51861U 22022K   23050.95319708 -.00004722  00000-0 -27874-3 0  9999,2 51861  53.2166 328.8761 0001026  91.0832 269.0278 15.08850271 54968,6917.849,95.437,540.424,539.004,0.0
